start=new Date('2022-06-21T00:00:00.000Z').valueOf();
sats=[{"FILE":"3498404","MEAN_MOTION":"15.06391630","EPHEMERIS_TYPE":"0","OBJECT_TYPE":"PAYLOAD","CENTER_NAME":"EARTH","TLE_LINE2":"2 48330  53.0545  77.6123 0001817  60.7810 299.3361 15.06391630 63362","SITE":"AFETR","PERIAPSIS":"545.981","APOAPSIS":"548.498","OBJECT_ID":"2021-036BG","GP_ID":"206512448","SEMIMAJOR_AXIS":"6925.374","MEAN_ELEMENT_THEORY":"SGP4","EPOCH":"2022-06-20T18:13:23.202912","MEAN_MOTION_DDOT":"0.0000000000000","NORAD_CAT_ID":"48330","RA_OF_ASC_NODE":"77.6123","LAUNCH_DATE":"2021-04-29","DECAY_DATE":null,"ARG_OF_PERICENTER":"60.7810","TIME_SYSTEM":"UTC","ELEMENT_SET_NO":"999","PERIOD":"95.593","RCS_SIZE":"LARGE","INCLINATION":"53.0545","TLE_LINE1":"1 48330U 21036BG  22171.75929633  .00000070  00000-0  23617-4 0  9997","REF_FRAME":"TEME","COUNTRY_CODE":"US","BSTAR":"0.00002361700000","OBJECT_NAME":"STARLINK-2501","MEAN_MOTION_DOT":"0.00000070","REV_AT_EPOCH":"6336","CLASSIFICATION_TYPE":"U","ECCENTRICITY":"0.00018170","MEAN_ANOMALY":"299.3361"},{"EPHEMERIS_TYPE":"0","OBJECT_TYPE":"PAYLOAD","FILE":"3498071","MEAN_MOTION":"15.06394754","OBJECT_ID":"2021-036BH","SEMIMAJOR_AXIS":"6925.365","GP_ID":"206480876","APOAPSIS":"548.565","TLE_LINE2":"2 48331  53.0556  80.3098 0001928  55.4309 304.6862 15.06394754 63270","SITE":"AFETR","CENTER_NAME":"EARTH","PERIAPSIS":"545.894","EPOCH":"2022-06-20T03:48:13.469472","MEAN_ELEMENT_THEORY":"SGP4","LAUNCH_DATE":"2021-04-29","NORAD_CAT_ID":"48331","RA_OF_ASC_NODE":"80.3098","MEAN_MOTION_DDOT":"0.0000000000000","RCS_SIZE":"LARGE","INCLINATION":"53.0556","ELEMENT_SET_NO":"999","PERIOD":"95.592","ARG_OF_PERICENTER":"55.4309","TIME_SYSTEM":"UTC","DECAY_DATE":null,"COUNTRY_CODE":"US","BSTAR":"0.00005110200000","REF_FRAME":"TEME","TLE_LINE1":"1 48331U 21036BH  22171.15848923  .00000479  00000-0  51102-4 0  9997","REV_AT_EPOCH":"6327","OBJECT_NAME":"STARLINK-2514","MEAN_MOTION_DOT":"0.00000479","CLASSIFICATION_TYPE":"U","ECCENTRICITY":"0.00019280","MEAN_ANOMALY":"304.6862"},{"REV_AT_EPOCH":"6338","OBJECT_NAME":"STARLINK-2511","MEAN_MOTION_DOT":"-0.00000537","CLASSIFICATION_TYPE":"U","ECCENTRICITY":"0.00020680","MEAN_ANOMALY":"294.0779","RCS_SIZE":"LARGE","INCLINATION":"53.0543","ELEMENT_SET_NO":"999","PERIOD":"95.592","ARG_OF_PERICENTER":"66.0426","TIME_SYSTEM":"UTC","DECAY_DATE":null,"COUNTRY_CODE":"US","BSTAR":"-0.00001710700000","REF_FRAME":"TEME","TLE_LINE1":"1 48332U 21036BJ  22171.88735466 -.00000537  00000-0 -17107-4 0  9999","EPOCH":"2022-06-20T21:17:47.442624","MEAN_ELEMENT_THEORY":"SGP4","LAUNCH_DATE":"2021-04-29","NORAD_CAT_ID":"48332","RA_OF_ASC_NODE":"77.0235","MEAN_MOTION_DDOT":"0.0000000000000","EPHEMERIS_TYPE":"0","OBJECT_TYPE":"PAYLOAD","MEAN_MOTION":"15.06400796","FILE":"3498404","OBJECT_ID":"2021-036BJ","GP_ID":"206513937","SEMIMAJOR_AXIS":"6925.346","APOAPSIS":"548.643","TLE_LINE2":"2 48332  53.0543  77.0235 0002068  66.0426 294.0779 15.06400796 63382","SITE":"AFETR","CENTER_NAME":"EARTH","PERIAPSIS":"545.779"},{"REV_AT_EPOCH":"6335","OBJECT_NAME":"STARLINK-2518","MEAN_MOTION_DOT":"0.00001014","CLASSIFICATION_TYPE":"U","MEAN_ANOMALY":"302.8793","ECCENTRICITY":"0.00015670","RCS_SIZE":"LARGE","INCLINATION":"53.0554","ELEMENT_SET_NO":"999","PERIOD":"95.593","ARG_OF_PERICENTER":"57.2346","TIME_SYSTEM":"UTC","DECAY_DATE":null,"COUNTRY_CODE":"US","BSTAR":"0.00008698100000","REF_FRAME":"TEME","TLE_LINE1":"1 48333U 21036BK  22171.68188990  .00001014  00000-0  86981-4 0  9997","EPOCH":"2022-06-20T16:21:55.287360","MEAN_ELEMENT_THEORY":"SGP4","LAUNCH_DATE":"2021-04-29","RA_OF_ASC_NODE":"77.9419","NORAD_CAT_ID":"48333","MEAN_MOTION_DDOT":"0.0000000000000","EPHEMERIS_TYPE":"0","OBJECT_TYPE":"PAYLOAD","FILE":"3498404","MEAN_MOTION":"15.06391103","OBJECT_ID":"2021-036BK","SEMIMAJOR_AXIS":"6925.376","GP_ID":"206512700","APOAPSIS":"548.326","SITE":"AFETR","TLE_LINE2":"2 48333  53.0554  77.9419 0001567  57.2346 302.8793 15.06391103 63356","CENTER_NAME":"EARTH","PERIAPSIS":"546.156"},{"REV_AT_EPOCH":"6332","MEAN_MOTION_DOT":"0.00000648","OBJECT_NAME":"STARLINK-2470","MEAN_ANOMALY":"300.0451","ECCENTRICITY":"0.00014950","CLASSIFICATION_TYPE":"U","INCLINATION":"53.0548","RCS_SIZE":"LARGE","PERIOD":"95.592","ELEMENT_SET_NO":"999","TIME_SYSTEM":"UTC","ARG_OF_PERICENTER":"60.0686","DECAY_DATE":null,"BSTAR":"0.00006241500000","COUNTRY_CODE":"US","REF_FRAME":"TEME","TLE_LINE1":"1 48334U 21036BL  22171.47916237  .00000648  00000-0  62415-4 0  9996","EPOCH":"2022-06-20T11:29:59.628768","MEAN_ELEMENT_THEORY":"SGP4","LAUNCH_DATE":"2021-04-29","NORAD_CAT_ID":"48334","RA_OF_ASC_NODE":"78.8542","MEAN_MOTION_DDOT":"0.0000000000000","OBJECT_TYPE":"PAYLOAD","EPHEMERIS_TYPE":"0","MEAN_MOTION":"15.06400161","FILE":"3498071","SEMIMAJOR_AXIS":"6925.348","GP_ID":"206480128","OBJECT_ID":"2021-036BL","APOAPSIS":"548.248","PERIAPSIS":"546.178","SITE":"AFETR","TLE_LINE2":"2 48334  53.0548  78.8542 0001495  60.0686 300.0451 15.06400161 63329","CENTER_NAME":"EARTH"},{"FILE":"3498404","MEAN_MOTION":"15.06398834","EPHEMERIS_TYPE":"0","OBJECT_TYPE":"PAYLOAD","CENTER_NAME":"EARTH","TLE_LINE2":"2 48335  53.0551  77.7027 0001559  73.1089 287.0071 15.06398834 63362","SITE":"AFETR","PERIAPSIS":"546.137","APOAPSIS":"548.297","OBJECT_ID":"2021-036BM","GP_ID":"206513193","SEMIMAJOR_AXIS":"6925.352","MEAN_ELEMENT_THEORY":"SGP4","EPOCH":"2022-06-20T17:46:50.888928","MEAN_MOTION_DDOT":"0.0000000000000","NORAD_CAT_ID":"48335","RA_OF_ASC_NODE":"77.7027","LAUNCH_DATE":"2021-04-29","DECAY_DATE":null,"ARG_OF_PERICENTER":"73.1089","TIME_SYSTEM":"UTC","ELEMENT_SET_NO":"999","PERIOD":"95.592","RCS_SIZE":"LARGE","INCLINATION":"53.0551","TLE_LINE1":"1 48335U 21036BM  22171.74086677  .00002155  00000-0  16351-3 0  9995","REF_FRAME":"TEME","COUNTRY_CODE":"US","BSTAR":"0.00016351000000","OBJECT_NAME":"STARLINK-2441","MEAN_MOTION_DOT":"0.00002155","REV_AT_EPOCH":"6336","CLASSIFICATION_TYPE":"U","MEAN_ANOMALY":"287.0071","ECCENTRICITY":"0.00015590"},{"MEAN_ANOMALY":"302.4225","ECCENTRICITY":"0.00015590","CLASSIFICATION_TYPE":"U","MEAN_MOTION_DOT":"0.00000315","OBJECT_NAME":"STARLINK-2613","REV_AT_EPOCH":"6235","REF_FRAME":"TEME","BSTAR":"0.00004004600000","COUNTRY_CODE":"US","TLE_LINE1":"1 48353U 21038A   22171.74639103  .00000315  00000-0  40046-4 0  9990","PERIOD":"95.592","ELEMENT_SET_NO":"999","INCLINATION":"53.0543","RCS_SIZE":"LARGE","DECAY_DATE":null,"TIME_SYSTEM":"UTC","ARG_OF_PERICENTER":"57.6915","LAUNCH_DATE":"2021-05-04","MEAN_MOTION_DDOT":"0.0000000000000","NORAD_CAT_ID":"48353","RA_OF_ASC_NODE":"337.6762","EPOCH":"2022-06-20T17:54:48.184992","MEAN_ELEMENT_THEORY":"SGP4","APOAPSIS":"548.297","SEMIMAJOR_AXIS":"6925.352","GP_ID":"206512702","OBJECT_ID":"2021-038A","PERIAPSIS":"546.138","TLE_LINE2":"2 48353  53.0543 337.6762 0001559  57.6915 302.4225 15.06398763 62354","CENTER_NAME":"EARTH","SITE":"AFETR","OBJECT_TYPE":"PAYLOAD","EPHEMERIS_TYPE":"0","MEAN_MOTION":"15.06398763","FILE":"3498404"},{"EPOCH":"2022-06-20T21:00:35.304768","MEAN_ELEMENT_THEORY":"SGP4","MEAN_MOTION_DDOT":"0.0000000000000","NORAD_CAT_ID":"48354","RA_OF_ASC_NODE":"337.0998","LAUNCH_DATE":"2021-05-04","MEAN_MOTION":"15.06397871","FILE":"3498404","OBJECT_TYPE":"PAYLOAD","EPHEMERIS_TYPE":"0","PERIAPSIS":"546.106","CENTER_NAME":"EARTH","TLE_LINE2":"2 48354  53.0558 337.0998 0001609  68.4080 291.7081 15.06397871 62376","SITE":"AFETR","APOAPSIS":"548.334","SEMIMAJOR_AXIS":"6925.355","GP_ID":"206512951","OBJECT_ID":"2021-038B","MEAN_MOTION_DOT":"-0.00000845","OBJECT_NAME":"STARLINK-2674","REV_AT_EPOCH":"6237","ECCENTRICITY":"0.00016090","MEAN_ANOMALY":"291.7081","CLASSIFICATION_TYPE":"U","DECAY_DATE":null,"TIME_SYSTEM":"UTC","ARG_OF_PERICENTER":"68.4080","PERIOD":"95.592","ELEMENT_SET_NO":"999","INCLINATION":"53.0558","RCS_SIZE":"LARGE","TLE_LINE1":"1 48354U 21038B   22171.87540862 -.00000845  00000-0 -37830-4 0  9995","REF_FRAME":"TEME","BSTAR":"-0.00003783000000","COUNTRY_CODE":"US"},{"MEAN_ELEMENT_THEORY":"SGP4","EPOCH":"2022-06-20T20:55:16.511232","LAUNCH_DATE":"2021-05-04","MEAN_MOTION_DDOT":"0.0000000000000","NORAD_CAT_ID":"48355","RA_OF_ASC_NODE":"337.1058","OBJECT_TYPE":"PAYLOAD","EPHEMERIS_TYPE":"0","FILE":"3498404","MEAN_MOTION":"15.06397606","APOAPSIS":"548.369","SEMIMAJOR_AXIS":"6925.356","GP_ID":"206513195","OBJECT_ID":"2021-038C","PERIAPSIS":"546.073","TLE_LINE2":"2 48355  53.0560 337.1058 0001658  82.4308 277.6869 15.06397606 62374","SITE":"AFETR","CENTER_NAME":"EARTH","MEAN_MOTION_DOT":"0.00000246","OBJECT_NAME":"STARLINK-2635","REV_AT_EPOCH":"6237","MEAN_ANOMALY":"277.6869","ECCENTRICITY":"0.00016580","CLASSIFICATION_TYPE":"U","PERIOD":"95.592","ELEMENT_SET_NO":"999","INCLINATION":"53.0560","RCS_SIZE":"LARGE","DECAY_DATE":null,"TIME_SYSTEM":"UTC","ARG_OF_PERICENTER":"82.4308","REF_FRAME":"TEME","BSTAR":"0.00003543800000","COUNTRY_CODE":"US","TLE_LINE1":"1 48355U 21038C   22171.87171888  .00000246  00000-0  35438-4 0  9999"},{"TLE_LINE1":"1 48356U 21038D   22171.86803161  .00001056  00000-0  89783-4 0  9997","REF_FRAME":"TEME","BSTAR":"0.00008978300000","COUNTRY_CODE":"US","DECAY_DATE":null,"TIME_SYSTEM":"UTC","ARG_OF_PERICENTER":"68.1157","PERIOD":"95.592","ELEMENT_SET_NO":"999","INCLINATION":"53.0542","RCS_SIZE":"LARGE","ECCENTRICITY":"0.00016530","MEAN_ANOMALY":"292.0007","CLASSIFICATION_TYPE":"U","MEAN_MOTION_DOT":"0.00001056","OBJECT_NAME":"STARLINK-2637","REV_AT_EPOCH":"6237","PERIAPSIS":"546.066","SITE":"AFETR","TLE_LINE2":"2 48356  53.0542 337.1180 0001653  68.1157 292.0007 15.06401006 62374","CENTER_NAME":"EARTH","APOAPSIS":"548.355","GP_ID":"206513439","SEMIMAJOR_AXIS":"6925.345","OBJECT_ID":"2021-038D","MEAN_MOTION":"15.06401006","FILE":"3498404","OBJECT_TYPE":"PAYLOAD","EPHEMERIS_TYPE":"0","MEAN_MOTION_DDOT":"0.0000000000000","NORAD_CAT_ID":"48356","RA_OF_ASC_NODE":"337.1180","LAUNCH_DATE":"2021-05-04","MEAN_ELEMENT_THEORY":"SGP4","EPOCH":"2022-06-20T20:49:57.931104"}];
